{"fetched_at":"2026-07-16T17:46:05.603Z","source":"https://celestrak.org/NORAD/elements/gp.php?GROUP=oneweb&FORMAT=JSON","constellation":"oneweb","records":[{"OBJECT_NAME":"ONEWEB-0033","OBJECT_ID":"2020-008M","EPOCH":"2026-07-16T01:38:13.693920","CLASSIFICATION_TYPE":"U","MEAN_MOTION":13.1037171,"ECCENTRICITY":0.00022762,"INCLINATION":87.8811,"RA_OF_ASC_NODE":30.5202,"ARG_OF_PERICENTER":95.8629,"MEAN_ANOMALY":264.2757,"EPHEMERIS_TYPE":0,"NORAD_CAT_ID":45142,"ELEMENT_SET_NO":999,"REV_AT_EPOCH":31199,"BSTAR":0.0018817688,"MEAN_MOTION_DOT":0.0000067,"MEAN_MOTION_DDOT":0},{"OBJECT_NAME":"ONEWEB-0035","OBJECT_ID":"2020-008N","EPOCH":"2026-07-16T02:07:43.980672","CLASSIFICATION_TYPE":"U","MEAN_MOTION":13.10373717,"ECCENTRICITY":0.00018288,"INCLINATION":87.8809,"RA_OF_ASC_NODE":30.5095,"ARG_OF_PERICENTER":91.0529,"MEAN_ANOMALY":269.0808,"EPHEMERIS_TYPE":0,"NORAD_CAT_ID":45143,"ELEMENT_SET_NO":999,"REV_AT_EPOCH":31172,"BSTAR":-0.00048483038,"MEAN_MOTION_DOT":-0.00000157,"MEAN_MOTION_DDOT":0},{"OBJECT_NAME":"ONEWEB-0036","OBJECT_ID":"2020-008P","EPOCH":"2026-07-16T01:35:37.531104","CLASSIFICATION_TYPE":"U","MEAN_MOTION":13.10373721,"ECCENTRICITY":0.00017376,"INCLINATION":87.883,"RA_OF_ASC_NODE":30.5314,"ARG_OF_PERICENTER":82.1434,"MEAN_ANOMALY":277.989,"EPHEMERIS_TYPE":0,"NORAD_CAT_ID":45144,"ELEMENT_SET_NO":999,"REV_AT_EPOCH":31214,"BSTAR":0.0017310456,"MEAN_MOTION_DOT":0.00000617,"MEAN_MOTION_DDOT":0},{"OBJECT_NAME":"ONEWEB-0038","OBJECT_ID":"2020-008Q","EPOCH":"2026-07-16T00:13:02.818560","CLASSIFICATION_TYPE":"U","MEAN_MOTION":13.11418965,"ECCENTRICITY":0.00020474,"INCLINATION":87.8901,"RA_OF_ASC_NODE":15.341,"ARG_OF_PERICENTER":141.7676,"MEAN_ANOMALY":218.3598,"EPHEMERIS_TYPE":0,"NORAD_CAT_ID":45145,"ELEMENT_SET_NO":999,"REV_AT_EPOCH":31410,"BSTAR":0.00054346564,"MEAN_MOTION_DOT":0.00000205,"MEAN_MOTION_DDOT":0},{"OBJECT_NAME":"ONEWEB-0039","OBJECT_ID":"2020-008R","EPOCH":"2026-07-16T01:43:07.072896","CLASSIFICATION_TYPE":"U","MEAN_MOTION":13.10370917,"ECCENTRICITY":0.0001324,"INCLINATION":87.8816,"RA_OF_ASC_NODE":30.5106,"ARG_OF_PERICENTER":82.634,"MEAN_ANOMALY":277.4937,"EPHEMERIS_TYPE":0,"NORAD_CAT_ID":45146,"ELEMENT_SET_NO":999,"REV_AT_EPOCH":31194,"BSTAR":0.0017396482,"MEAN_MOTION_DOT":0.0000062,"MEAN_MOTION_DDOT":0},{"OBJECT_NAME":"ONEWEB-0040","OBJECT_ID":"2020-008S","EPOCH":"2026-07-16T01:33:19.953792","CLASSIFICATION_TYPE":"U","MEAN_MOTION":13.10372431,"ECCENTRICITY":0.00018531,"INCLINATION":87.8815,"RA_OF_ASC_NODE":30.5222,"ARG_OF_PERICENTER":76.7791,"MEAN_ANOMALY":283.3543,"EPHEMERIS_TYPE":0,"NORAD_CAT_ID":45147,"ELEMENT_SET_NO":999,"REV_AT_EPOCH":31164,"BSTAR":0.0019198825,"MEAN_MOTION_DOT":0.00000683,"MEAN_MOTION_DDOT":0},{"OBJECT_NAME":"ONEWEB-0043","OBJECT_ID":"2020-008U","EPOCH":"2026-07-16T01:35:58.806240","CLASSIFICATION_TYPE":"U","MEAN_MOTION":13.10374992,"ECCENTRICITY":0.0001344,"INCLINATION":87.8821,"RA_OF_ASC_NODE":30.5114,"ARG_OF_PERICENTER":80.259,"MEAN_ANOMALY":279.8689,"EPHEMERIS_TYPE":0,"NORAD_CAT_ID":45149,"ELEMENT_SET_NO":999,"REV_AT_EPOCH":31196,"BSTAR":0.0018124413,"MEAN_MOTION_DOT":0.00000645,"MEAN_MOTION_DDOT":0},{"OBJECT_NAME":"ONEWEB-0044","OBJECT_ID":"2020-008V","EPOCH":"2026-07-16T02:17:18.766176","CLASSIFICATION_TYPE":"U","MEAN_MOTION":13.10372819,"ECCENTRICITY":0.00017342,"INCLINATION":87.8822,"RA_OF_ASC_NODE":30.5076,"ARG_OF_PERICENTER":85.5785,"MEAN_ANOMALY":274.5541,"EPHEMERIS_TYPE":0,"NORAD_CAT_ID":45150,"ELEMENT_SET_NO":999,"REV_AT_EPOCH":31226,"BSTAR":-0.0015791976,"MEAN_MOTION_DOT":-0.00000539,"MEAN_MOTION_DDOT":0},{"OBJECT_NAME":"ONEWEB-0045","OBJECT_ID":"2020-008W","EPOCH":"2026-07-16T00:05:31.067520","CLASSIFICATION_TYPE":"U","MEAN_MOTION":13.11418754,"ECCENTRICITY":0.00017149,"INCLINATION":87.8893,"RA_OF_ASC_NODE":15.3231,"ARG_OF_PERICENTER":91.2101,"MEAN_ANOMALY":268.9223,"EPHEMERIS_TYPE":0,"NORAD_CAT_ID":45151,"ELEMENT_SET_NO":999,"REV_AT_EPOCH":31418,"BSTAR":-0.000059174254,"MEAN_MOTION_DOT":-8e-8,"MEAN_MOTION_DDOT":0},{"OBJECT_NAME":"ONEWEB-0047","OBJECT_ID":"2020-008X","EPOCH":"2026-07-16T02:07:19.767072","CLASSIFICATION_TYPE":"U","MEAN_MOTION":13.10369232,"ECCENTRICITY":0.00018903,"INCLINATION":87.882,"RA_OF_ASC_NODE":30.508,"ARG_OF_PERICENTER":94.2175,"MEAN_ANOMALY":265.9168,"EPHEMERIS_TYPE":0,"NORAD_CAT_ID":45152,"ELEMENT_SET_NO":999,"REV_AT_EPOCH":31198,"BSTAR":-0.00030776807,"MEAN_MOTION_DOT":-9.5e-7,"MEAN_MOTION_DDOT":0},{"OBJECT_NAME":"ONEWEB-0048","OBJECT_ID":"2020-008Y","EPOCH":"2026-07-16T02:00:13.319136","CLASSIFICATION_TYPE":"U","MEAN_MOTION":13.10370734,"ECCENTRICITY":0.00017239,"INCLINATION":87.8811,"RA_OF_ASC_NODE":30.5275,"ARG_OF_PERICENTER":92.91,"MEAN_ANOMALY":267.2225,"EPHEMERIS_TYPE":0,"NORAD_CAT_ID":45153,"ELEMENT_SET_NO":999,"REV_AT_EPOCH":31159,"BSTAR":0.0004414393,"MEAN_MOTION_DOT":0.00000167,"MEAN_MOTION_DDOT":0},{"OBJECT_NAME":"ONEWEB-0049","OBJECT_ID":"2020-008Z","EPOCH":"2026-07-16T00:14:55.403808","CLASSIFICATION_TYPE":"U","MEAN_MOTION":13.10369223,"ECCENTRICITY":0.00018907,"INCLINATION":87.8809,"RA_OF_ASC_NODE":30.5313,"ARG_OF_PERICENTER":76.595,"MEAN_ANOMALY":283.5388,"EPHEMERIS_TYPE":0,"NORAD_CAT_ID":45154,"ELEMENT_SET_NO":999,"REV_AT_EPOCH":31180,"BSTAR":-0.00016964812,"MEAN_MOTION_DOT":-4.7e-7,"MEAN_MOTION_DDOT":0},{"OBJECT_NAME":"ONEWEB-0051","OBJECT_ID":"2020-008AA","EPOCH":"2026-07-16T00:03:04.543488","CLASSIFICATION_TYPE":"U","MEAN_MOTION":13.11419423,"ECCENTRICITY":0.00018356,"INCLINATION":87.8887,"RA_OF_ASC_NODE":15.3292,"ARG_OF_PERICENTER":89.852,"MEAN_ANOMALY":270.2819,"EPHEMERIS_TYPE":0,"NORAD_CAT_ID":45155,"ELEMENT_SET_NO":999,"REV_AT_EPOCH":31486,"BSTAR":-0.00032847883,"MEAN_MOTION_DOT":-0.00000104,"MEAN_MOTION_DDOT":0},{"OBJECT_NAME":"ONEWEB-0052","OBJECT_ID":"2020-008AB","EPOCH":"2026-07-16T06:14:31.417440","CLASSIFICATION_TYPE":"U","MEAN_MOTION":13.10374722,"ECCENTRICITY":0.00017493,"INCLINATION":87.8822,"RA_OF_ASC_NODE":30.4696,"ARG_OF_PERICENTER":76.3158,"MEAN_ANOMALY":283.8164,"EPHEMERIS_TYPE":0,"NORAD_CAT_ID":45156,"ELEMENT_SET_NO":999,"REV_AT_EPOCH":31174,"BSTAR":-0.0020257002,"MEAN_MOTION_DOT":-0.00000694,"MEAN_MOTION_DDOT":0},{"OBJECT_NAME":"ONEWEB-0053","OBJECT_ID":"2020-008AC","EPOCH":"2026-07-16T01:30:53.671680","CLASSIFICATION_TYPE":"U","MEAN_MOTION":13.10372691,"ECCENTRICITY":0.00014636,"INCLINATION":87.8814,"RA_OF_ASC_NODE":30.5281,"ARG_OF_PERICENTER":77.633,"MEAN_ANOMALY":282.4961,"EPHEMERIS_TYPE":0,"NORAD_CAT_ID":45157,"ELEMENT_SET_NO":999,"REV_AT_EPOCH":31169,"BSTAR":0.0020804958,"MEAN_MOTION_DOT":0.00000739,"MEAN_MOTION_DDOT":0},{"OBJECT_NAME":"ONEWEB-0054","OBJECT_ID":"2020-008AD","EPOCH":"2026-07-16T02:22:11.407296","CLASSIFICATION_TYPE":"U","MEAN_MOTION":13.10373617,"ECCENTRICITY":0.00018588,"INCLINATION":87.8816,"RA_OF_ASC_NODE":30.5069,"ARG_OF_PERICENTER":86.2557,"MEAN_ANOMALY":273.8783,"EPHEMERIS_TYPE":0,"NORAD_CAT_ID":45158,"ELEMENT_SET_NO":999,"REV_AT_EPOCH":31181,"BSTAR":-0.0016294839,"MEAN_MOTION_DOT":-0.00000556,"MEAN_MOTION_DDOT":0}]}
